{"type": "FeatureCollection", "features": [ {"type": "Feature", "properties": {"norad_id": 35705, "name": "COSMOS 2251 DEB", "group": "cosmos-2251-debris", "lat": 49.80452199669071, "lon": 143.94642144273053, "alt_km": 626.3406803099297, "timestamp": "2025-12-18T15:47:11.621924+00:00", "meta": {"OBJECT_NAME": "COSMOS 2251 DEB", "OBJECT_ID": "1993-036AQA", "EPOCH": "2025-12-18T02:30:16.850016", "MEAN_MOTION": 14.7240967, "ECCENTRICITY": 0.0033127, "INCLINATION": 74.2733, "RA_OF_ASC_NODE": 125.5265, "ARG_OF_PERICENTER": 72.0768, "MEAN_ANOMALY": 288.4013, "EPHEMERIS_TYPE": 0, "CLASSIFICATION_TYPE": "U", "NORAD_CAT_ID": 35705, "ELEMENT_SET_NO": 999, "REV_AT_EPOCH": 86005, "BSTAR": 0.0020233771, "MEAN_MOTION_DOT": 0.00012927, "MEAN_MOTION_DDOT": 0}, "tle": {"line1": "1 35705U 93036AQA 25352.10436169  .00012927  00000+0  20234-2 0  9991", "line2": "2 35705  74.2733 125.5265 0033127  72.0768 288.4013 14.72409670860055"}}, "geometry": {"type": "Point", "coordinates": [143.94642144273053, 49.80452199669071]}}, {"type": "Feature", "properties": {"norad_id": 35706, "name": "COSMOS 2251 DEB", "group": "cosmos-2251-debris", "lat": -30.066368371685456, "lon": -117.33646399854383, "alt_km": 1096.4626434848005, "timestamp": "2025-12-18T15:47:11.621934+00:00", "meta": {"OBJECT_NAME": "COSMOS 2251 DEB", "OBJECT_ID": "1993-036AQB", "EPOCH": "2025-12-17T12:25:35.555232", "MEAN_MOTION": 13.65933919, "ECCENTRICITY": 0.03402038, "INCLINATION": 73.8894, "RA_OF_ASC_NODE": 54.9149, "ARG_OF_PERICENTER": 103.8127, "MEAN_ANOMALY": 260.1085, "EPHEMERIS_TYPE": 0, "CLASSIFICATION_TYPE": "U", "NORAD_CAT_ID": 35706, "ELEMENT_SET_NO": 999, "REV_AT_EPOCH": 62127, "BSTAR": 0.00060966611, "MEAN_MOTION_DOT": 7.25e-06, "MEAN_MOTION_DDOT": 0}, "tle": {"line1": "1 35706U 93036AQB 25351.51777263  .00000725  00000+0  60967-3 0  9990", "line2": "2 35706  73.8894  54.9149 0340203 103.8127 260.1085 13.65933919621277"}}, "geometry": {"type": "Point", "coordinates": [-117.33646399854383, -30.066368371685456]}}, {"type": "Feature", "properties": {"norad_id": 35711, "name": "COSMOS 2251 DEB", "group": "cosmos-2251-debris", "lat": -22.914597606094613, "lon": 36.05080111415558, "alt_km": 700.9897079328985, "timestamp": "2025-12-18T15:47:11.621945+00:00", "meta": {"OBJECT_NAME": "COSMOS 2251 DEB", "OBJECT_ID": "1993-036AQG", "EPOCH": "2025-12-16T08:43:24.573504", "MEAN_MOTION": 14.63811457, "ECCENTRICITY": 0.00855113, "INCLINATION": 74.0451, "RA_OF_ASC_NODE": 213.5058, "ARG_OF_PERICENTER": 313.6514, "MEAN_ANOMALY": 45.7584, "EPHEMERIS_TYPE": 0, "CLASSIFICATION_TYPE": "U", "NORAD_CAT_ID": 35711, "ELEMENT_SET_NO": 999, "REV_AT_EPOCH": 87824, "BSTAR": 0.00016330045, "MEAN_MOTION_DOT": 8.64e-06, "MEAN_MOTION_DDOT": 0}, "tle": {"line1": "1 35711U 93036AQG 25350.36347886  .00000864  00000+0  16330-3 0  9991", "line2": "2 35711  74.0451 213.5058 0085511 313.6514  45.7584 14.63811457878249"}}, "geometry": {"type": "Point", "coordinates": [36.05080111415558, -22.914597606094613]}}, {"type": "Feature", "properties": {"norad_id": 35716, "name": "COSMOS 2251 DEB", "group": "cosmos-2251-debris", "lat": -24.1615498597463, "lon": 10.279080757938974, "alt_km": 760.8819276772219, "timestamp": "2025-12-18T15:47:11.621955+00:00", "meta": {"OBJECT_NAME": "COSMOS 2251 DEB", "OBJECT_ID": "1993-036AQM", "EPOCH": "2025-12-17T19:10:59.620224", "MEAN_MOTION": 14.60091999, "ECCENTRICITY": 0.00889426, "INCLINATION": 73.992, "RA_OF_ASC_NODE": 184.5217, "ARG_OF_PERICENTER": 24.1822, "MEAN_ANOMALY": 350.396, "EPHEMERIS_TYPE": 0, "CLASSIFICATION_TYPE": "U", "NORAD_CAT_ID": 35716, "ELEMENT_SET_NO": 999, "REV_AT_EPOCH": 87701, "BSTAR": 7.2268042e-05, "MEAN_MOTION_DOT": 3.34e-06, "MEAN_MOTION_DDOT": 0}, "tle": {"line1": "1 35716U 93036AQM 25351.79930116  .00000334  00000+0  72268-4 0  9993", "line2": "2 35716  73.9920 184.5217 0088942  24.1822 350.3960 14.60091999877019"}}, "geometry": {"type": "Point", "coordinates": [10.279080757938974, -24.1615498597463]}}, {"type": "Feature", "properties": {"norad_id": 35717, "name": "COSMOS 2251 DEB", "group": "cosmos-2251-debris", "lat": -52.08895375827155, "lon": 48.05067764583349, "alt_km": 824.3638411024413, "timestamp": "2025-12-18T15:47:11.621964+00:00", "meta": {"OBJECT_NAME": "COSMOS 2251 DEB", "OBJECT_ID": "1993-036AQN", "EPOCH": "2025-12-15T21:36:31.335552", "MEAN_MOTION": 14.38515087, "ECCENTRICITY": 0.00772191, "INCLINATION": 74.1598, "RA_OF_ASC_NODE": 211.7132, "ARG_OF_PERICENTER": 70.2705, "MEAN_ANOMALY": 290.6758, "EPHEMERIS_TYPE": 0, "CLASSIFICATION_TYPE": "U", "NORAD_CAT_ID": 35717, "ELEMENT_SET_NO": 999, "REV_AT_EPOCH": 74145, "BSTAR": 0.0007891897, "MEAN_MOTION_DOT": 2.473e-05, "MEAN_MOTION_DDOT": 0}, "tle": {"line1": "1 35717U 93036AQN 25349.90036268  .00002473  00000+0  78919-3 0  9993", "line2": "2 35717  74.1598 211.7132 0077219  70.2705 290.6758 14.38515087741453"}}, "geometry": {"type": "Point", "coordinates": [48.05067764583349, -52.08895375827155]}}, {"type": "Feature", "properties": {"norad_id": 35718, "name": "COSMOS 2251 DEB", "group": "cosmos-2251-debris", "lat": -71.89604298433458, "lon": -0.33323643112472656, "alt_km": 672.5576522243782, "timestamp": "2025-12-18T15:47:11.621974+00:00", "meta": {"OBJECT_NAME": "COSMOS 2251 DEB", "OBJECT_ID": "1993-036AQP", "EPOCH": "2025-12-17T02:38:13.400448", "MEAN_MOTION": 14.68736376, "ECCENTRICITY": 0.00104417, "INCLINATION": 74.0312, "RA_OF_ASC_NODE": 121.5128, "ARG_OF_PERICENTER": 170.1123, "MEAN_ANOMALY": 190.0255, "EPHEMERIS_TYPE": 0, "CLASSIFICATION_TYPE": "U", "NORAD_CAT_ID": 35718, "ELEMENT_SET_NO": 999, "REV_AT_EPOCH": 65904, "BSTAR": 0.0013106326, "MEAN_MOTION_DOT": 7.622e-05, "MEAN_MOTION_DDOT": 0}, "tle": {"line1": "1 35718U 93036AQP 25351.10987732  .00007622  00000+0  13106-2 0  9997", "line2": "2 35718  74.0312 121.5128 0010441 170.1123 190.0255 14.68736376659045"}}, "geometry": {"type": "Point", "coordinates": [-0.33323643112472656, -71.89604298433458]}}, {"type": "Feature", "properties": {"norad_id": 35721, "name": "COSMOS 2251 DEB", "group": "cosmos-2251-debris", "lat": -73.92514389212619, "lon": 79.29545710020594, "alt_km": 704.5169659574103, "timestamp": "2025-12-18T15:47:11.621984+00:00", "meta": {"OBJECT_NAME": "COSMOS 2251 DEB", "OBJECT_ID": "1993-036AQS", "EPOCH": "2025-12-09T19:36:39.465216", "MEAN_MOTION": 14.34317214, "ECCENTRICITY": 0.01465875, "INCLINATION": 73.9489, "RA_OF_ASC_NODE": 183.1196, "ARG_OF_PERICENTER": 330.1589, "MEAN_ANOMALY": 29.126, "EPHEMERIS_TYPE": 0, "CLASSIFICATION_TYPE": "U", "NORAD_CAT_ID": 35721, "ELEMENT_SET_NO": 999, "REV_AT_EPOCH": 57747, "BSTAR": 0.0018396061, "MEAN_MOTION_DOT": 5.808e-05, "MEAN_MOTION_DDOT": 0}, "tle": {"line1": "1 35721U 93036AQS 25343.81712344  .00005808  00000+0  18396-2 0  9995", "line2": "2 35721  73.9489 183.1196 0146587 330.1589  29.1260 14.34317214577479"}}, "geometry": {"type": "Point", "coordinates": [79.29545710020594, -73.92514389212619]}}, {"type": "Feature", "properties": {"norad_id": 35724, "name": "COSMOS 2251 DEB", "group": "cosmos-2251-debris", "lat": -0.034049137328018377, "lon": -68.59305706056205, "alt_km": 696.4502990166566, "timestamp": "2025-12-18T15:47:11.621994+00:00", "meta": {"OBJECT_NAME": "COSMOS 2251 DEB", "OBJECT_ID": "1993-036AQV", "EPOCH": "2025-12-18T02:36:52.242336", "MEAN_MOTION": 14.58211099, "ECCENTRICITY": 0.00589944, "INCLINATION": 74.0328, "RA_OF_ASC_NODE": 292.4608, "ARG_OF_PERICENTER": 84.5216, "MEAN_ANOMALY": 276.2674, "EPHEMERIS_TYPE": 0, "CLASSIFICATION_TYPE": "U", "NORAD_CAT_ID": 35724, "ELEMENT_SET_NO": 999, "REV_AT_EPOCH": 87607, "BSTAR": 0.00021824888, "MEAN_MOTION_DOT": 1.001e-05, "MEAN_MOTION_DDOT": 0}, "tle": {"line1": "1 35724U 93036AQV 25352.10893799  .00001001  00000+0  21825-3 0  9997", "line2": "2 35724  74.0328 292.4608 0058994  84.5216 276.2674 14.58211099876071"}}, "geometry": {"type": "Point", "coordinates": [-68.59305706056205, -0.034049137328018377]}}, {"type": "Feature", "properties": {"norad_id": 35759, "name": "COSMOS 2251 DEB", "group": "cosmos-2251-debris", "lat": 1.186180897640793, "lon": -154.99403289925075, "alt_km": 637.888951774933, "timestamp": "2025-12-18T15:47:11.622004+00:00", "meta": {"OBJECT_NAME": "COSMOS 2251 DEB", "OBJECT_ID": "1993-036ARD", "EPOCH": "2025-12-17T08:38:24.236736", "MEAN_MOTION": 14.6490617, "ECCENTRICITY": 0.00772003, "INCLINATION": 74.0368, "RA_OF_ASC_NODE": 207.1613, "ARG_OF_PERICENTER": 324.2826, "MEAN_ANOMALY": 35.319, "EPHEMERIS_TYPE": 0, "CLASSIFICATION_TYPE": "U", "NORAD_CAT_ID": 35759, "ELEMENT_SET_NO": 999, "REV_AT_EPOCH": 66203, "BSTAR": 0.00021011522, "MEAN_MOTION_DOT": 1.14e-05, "MEAN_MOTION_DDOT": 0}, "tle": {"line1": "1 35759U 93036ARD 25351.36000274  .00001140  00000+0  21012-3 0  9992", "line2": "2 35759  74.0368 207.1613 0077200 324.2826  35.3190 14.64906170662038"}}, "geometry": {"type": "Point", "coordinates": [-154.99403289925075, 1.186180897640793]}}, {"type": "Feature", "properties": {"norad_id": 35771, "name": "COSMOS 2251 DEB", "group": "cosmos-2251-debris", "lat": -2.0923080836172314, "lon": -60.67222907031747, "alt_km": 932.6803189903867, "timestamp": "2025-12-18T15:47:11.622014+00:00", "meta": {"OBJECT_NAME": "COSMOS 2251 DEB", "OBJECT_ID": "1993-036ARR", "EPOCH": "2025-12-15T14:45:16.238592", "MEAN_MOTION": 14.13430046, "ECCENTRICITY": 0.02280549, "INCLINATION": 74.1561, "RA_OF_ASC_NODE": 305.27, "ARG_OF_PERICENTER": 242.9998, "MEAN_ANOMALY": 114.7698, "EPHEMERIS_TYPE": 0, "CLASSIFICATION_TYPE": "U", "NORAD_CAT_ID": 35771, "ELEMENT_SET_NO": 999, "REV_AT_EPOCH": 82901, "BSTAR": 0.0026764238, "MEAN_MOTION_DOT": 6.427e-05, "MEAN_MOTION_DDOT": 0}, "tle": {"line1": "1 35771U 93036ARR 25349.61477128  .00006427  00000+0  26764-2 0  9998", "line2": "2 35771  74.1561 305.2700 0228054 242.9998 114.7698 14.13430046829012"}}, "geometry": {"type": "Point", "coordinates": [-60.67222907031747, -2.0923080836172314]}}]}